{
  "norad_id": 51872,
  "name": "STARLINK-3554",
  "history": [
    {
      "epoch": "2026-03-28T19:57:12.082176",
      "apogee_km": 540.6037381577798,
      "perigee_km": 538.8728857547294,
      "latitude_deg": -44.5381073456535,
      "longitude_deg": 167.01342463982292,
      "semi_major_axis_km": 6917.875311956254,
      "eccentricity": 0.0001251,
      "inclination_deg": 53.2169,
      "raan_deg": 283.1927,
      "arg_perigee_deg": 84.8471,
      "mean_anomaly_deg": 275.2664,
      "mean_motion_rev_day": 15.08841661
    }
  ]
}