{"fetched_at":"2026-03-29T16:36:15Z","count":15609,"tles":[{"name":"STARLINK-3554","line1":"1 51872U 22022W   26087.83138984 -.00000142  00000+0  91438-5 0  9995","line2":"2 51872  53.2169 283.1927 0001251  84.8471 275.2664 15.08841661226006","category":"Starlink"}]}